IRIDIUM 155             
1 43573U 18061E   25055.61535241  .00000000  00000+0 -71834-5 0  9990
2 43573  86.3915 256.2128 0002223  85.9162 274.2288 14.34217799344902
IRIDIUM 154             
1 43574U 18061F   25055.59632351  .00000009  00000+0 -37622-5 0  9994
2 43574  86.3918 256.3307 0001907  88.8815 271.2599 14.34217824344957
IRIDIUM 163             
1 43575U 18061G   25055.50752771  .00000039  00000+0  69527-5 0  9996
2 43575  86.3915 256.2982 0002095  92.7562 267.3873 14.34217643344911
IRIDIUM 156             
1 43576U 18061H   25055.62169495 -.00000002  00000+0 -78767-5 0  9993
2 43576  86.3916 256.2572 0002243  81.8178 278.3272 14.34217559344927
IRIDIUM 164             
1 43577U 18061J   25055.81197143 -.00000010  00000+0 -10718-4 0  9996
2 43577  86.3917 256.2102 0001741  85.6970 274.4424 14.34217633344998
IRIDIUM 159             
1 43578U 18061K   25055.50118449 -.00000002  00000+0 -79315-5 0  9995
2 43578  86.3917 256.2870 0001783  93.7965 266.3434 14.34217686344912
IRIDIUM 180             
1 43922U 19002A   25055.84952494  .00000057  00000+0  13462-4 0  9995
2 43922  86.4023 193.0588 0002195  98.4182 261.7263 14.34218003320613
IRIDIUM 176             
1 43923U 19002B   25055.48196477  .00002855  00000+0  44895-3 0  9998
2 43923  86.6145 193.2141 0002016 113.1007 247.0423 14.72240065328967
IRIDIUM 168             
1 43924U 19002C   25055.77341315  .00000685  00000+0  23762-3 0  9993
2 43924  86.4026 193.1543 0001951  98.6955 261.4462 14.34219469320546
IRIDIUM 173             
1 43925U 19002D   25055.62119001  .00000721  00000+0  25021-3 0  9994
2 43925  86.4024 193.1265 0002136  96.0396 264.1043 14.34219030320508
IRIDIUM 169             
1 43926U 19002E   25055.54344221  .00000337  00000+0  10358-3 0  9990
2 43926  86.4216 224.7432 0003687  96.0789 264.0830 14.38592734321555
IRIDIUM 172             
1 43927U 19002F   25055.61484585  .00000595  00000+0  20532-3 0  9998
2 43927  86.4023 193.1356 0001943 100.5525 259.5890 14.34219128320517
IRIDIUM 175             
1 43928U 19002G   25055.54467556  .00002682  00000+0  42128-3 0  9994
2 43928  86.1557 152.1450 0002965  82.2779 277.8774 14.72251017328965
IRIDIUM 171             
1 43929U 19002H   25055.45628242  .00000538  00000+0  18514-3 0  9996
2 43929  86.4031 193.4547 0001859  84.2589 275.8819 14.34218580320486
IRIDIUM 170             
1 43930U 19002J   25055.62408912  .00002826  00000+0  44417-3 0  9990
2 43930  86.6143 193.1599 0002475  91.3930 268.7571 14.72250458328994
IRIDIUM 167             
1 43931U 19002K   25055.44994178  .00000350  00000+0  11793-3 0  9996
2 43931  86.4023 193.2226 0002260  86.1186 274.0268 14.34218673320485
IRIDIUM 181             
1 56726U 23068S   25055.63495278  .00000260  00000+0  71253-4 0  9995
2 56726  86.4455 256.2483 0002037  76.2327 283.9101 14.43317119 93559
IRIDIUM 177             
1 56727U 23068T   25055.44681569  .00004079  00000+0  53334-3 0  9996
2 56727  86.2005 195.5893 0002505  89.4571 270.6937 14.80220290 95697
IRIDIUM 174             
1 56728U 23068U   25055.64420596  .00003938  00000+0  51470-3 0  9992
2 56728  86.2013 195.6191 0001697  92.3832 267.7583 14.80235941 95720
IRIDIUM 178             
1 56729U 23068V   25055.50357449  .00001290  00000+0  16627-3 0  9998
2 56729  86.5768 225.0677 0001477  78.0381 282.1006 14.80234358 95704
IRIDIUM 179             
1 56730U 23068W   25055.76855628  .00001262  00000+0  16265-3 0  9997
2 56730  86.6764 232.2650 0001938  91.6617 268.4826 14.80226927 95743
